{
  "type": "FeatureCollection",
  "features": [
    {
      "type": "Feature",
      "properties": {
        "norad_id": 66835,
        "name": "STARLINK-35890",
        "group": "last-30-days",
        "lat": 18.387955360101856,
        "lon": -165.5469916563867,
        "alt_km": 372.1680520573427,
        "timestamp": "2025-12-16T17:51:09.662028+00:00",
        "meta_object_name": "STARLINK-35890",
        "meta_object_id": "2025-280Q",
        "meta_epoch": "2025-12-15T22:00:01.999584",
        "meta_mean_motion": 15.68896536,
        "meta_eccentricity": 0.00036448,
        "meta_inclination": 69.9979,
        "meta_ra_of_asc_node": 189.8125,
        "meta_arg_of_pericenter": 275.1185,
        "meta_mean_anomaly": 119.2659,
        "meta_ephemeris_type": 0,
        "meta_classification_type": "U",
        "meta_norad_cat_id": 66835,
        "meta_element_set_no": 999,
        "meta_rev_at_epoch": 340,
        "meta_bstar": -0.019081498,
        "meta_mean_motion_dot": -0.01948051,
        "meta_mean_motion_ddot": 0,
        "tle_line1": "1 66835U 25280Q   25349.91668981 -.01948051  00000+0 -19081-1 0  9995",
        "tle_line2": "2 66835  69.9979 189.8125 0003644 275.1185 119.2659 15.68896536  3406"
      },
      "geometry": {
        "type": "Point",
        "coordinates": [
          -165.5469916563867,
          18.387955360101856
        ]
      }
    },
    {
      "type": "Feature",
      "properties": {
        "norad_id": 66836,
        "name": "STARLINK-35838",
        "group": "last-30-days",
        "lat": 20.179622209061208,
        "lon": -164.81049649090997,
        "alt_km": 372.0101473362156,
        "timestamp": "2025-12-16T17:51:09.662038+00:00",
        "meta_object_name": "STARLINK-35838",
        "meta_object_id": "2025-280R",
        "meta_epoch": "2025-12-15T22:00:01.999584",
        "meta_mean_motion": 15.6889667,
        "meta_eccentricity": 0.00038228,
        "meta_inclination": 69.9978,
        "meta_ra_of_asc_node": 189.8103,
        "meta_arg_of_pericenter": 274.5703,
        "meta_mean_anomaly": 121.7287,
        "meta_ephemeris_type": 0,
        "meta_classification_type": "U",
        "meta_norad_cat_id": 66836,
        "meta_element_set_no": 999,
        "meta_rev_at_epoch": 340,
        "meta_bstar": -0.019063535,
        "meta_mean_motion_dot": -0.01946614,
        "meta_mean_motion_ddot": 0,
        "tle_line1": "1 66836U 25280R   25349.91668981 -.01946614  00000+0 -19064-1 0  9990",
        "tle_line2": "2 66836  69.9978 189.8103 0003822 274.5703 121.7287 15.68896670  3403"
      },
      "geometry": {
        "type": "Point",
        "coordinates": [
          -164.81049649090997,
          20.179622209061208
        ]
      }
    },
    {
      "type": "Feature",
      "properties": {
        "norad_id": 66837,
        "name": "STARLINK-35729",
        "group": "last-30-days",
        "lat": 22.00762466699234,
        "lon": -164.04059974492787,
        "alt_km": 371.7647577100697,
        "timestamp": "2025-12-16T17:51:09.662048+00:00",
        "meta_object_name": "STARLINK-35729",
        "meta_object_id": "2025-280S",
        "meta_epoch": "2025-12-15T22:00:01.999584",
        "meta_mean_motion": 15.68880391,
        "meta_eccentricity": 0.0003885,
        "meta_inclination": 69.9978,
        "meta_ra_of_asc_node": 189.8075,
        "meta_arg_of_pericenter": 272.9629,
        "meta_mean_anomaly": 125.2579,
        "meta_ephemeris_type": 0,
        "meta_classification_type": "U",
        "meta_norad_cat_id": 66837,
        "meta_element_set_no": 999,
        "meta_rev_at_epoch": 340,
        "meta_bstar": -0.018729482,
        "meta_mean_motion_dot": -0.01915252,
        "meta_mean_motion_ddot": 0,
        "tle_line1": "1 66837U 25280S   25349.91668981 -.01915252  00000+0 -18729-1 0  9992",
        "tle_line2": "2 66837  69.9978 189.8075 0003885 272.9629 125.2579 15.68880391  3406"
      },
      "geometry": {
        "type": "Point",
        "coordinates": [
          -164.04059974492787,
          22.00762466699234
        ]
      }
    },
    {
      "type": "Feature",
      "properties": {
        "norad_id": 66838,
        "name": "STARLINK-35886",
        "group": "last-30-days",
        "lat": 25.515180930353317,
        "lon": -162.4992863757735,
        "alt_km": 371.24649687672354,
        "timestamp": "2025-12-16T17:51:09.662058+00:00",
        "meta_object_name": "STARLINK-35886",
        "meta_object_id": "2025-280T",
        "meta_epoch": "2025-12-15T22:00:01.999584",
        "meta_mean_motion": 15.68892502,
        "meta_eccentricity": 0.00036106,
        "meta_inclination": 69.998,
        "meta_ra_of_asc_node": 189.8026,
        "meta_arg_of_pericenter": 276.0433,
        "meta_mean_anomaly": 126.0084,
        "meta_ephemeris_type": 0,
        "meta_classification_type": "U",
        "meta_norad_cat_id": 66838,
        "meta_element_set_no": 999,
        "meta_rev_at_epoch": 340,
        "meta_bstar": -0.019051211,
        "meta_mean_motion_dot": -0.01944991,
        "meta_mean_motion_ddot": 0,
        "tle_line1": "1 66838U 25280T   25349.91668981 -.01944991  00000+0 -19051-1 0  9994",
        "tle_line2": "2 66838  69.9980 189.8026 0003610 276.0433 126.0084 15.68892502  3407"
      },
      "geometry": {
        "type": "Point",
        "coordinates": [
          -162.4992863757735,
          25.515180930353317
        ]
      }
    },
    {
      "type": "Feature",
      "properties": {
        "norad_id": 66839,
        "name": "STARLINK-35717",
        "group": "last-30-days",
        "lat": 23.787267916412183,
        "lon": -163.27005355563577,
        "alt_km": 371.52224243395176,
        "timestamp": "2025-12-16T17:51:09.662068+00:00",
        "meta_object_name": "STARLINK-35717",
        "meta_object_id": "2025-280U",
        "meta_epoch": "2025-12-15T22:00:01.999584",
        "meta_mean_motion": 15.68878354,
        "meta_eccentricity": 0.00038594,
        "meta_inclination": 69.9978,
        "meta_ra_of_asc_node": 189.8048,
        "meta_arg_of_pericenter": 273.3526,
        "meta_mean_anomaly": 126.7848,
        "meta_ephemeris_type": 0,
        "meta_classification_type": "U",
        "meta_norad_cat_id": 66839,
        "meta_element_set_no": 999,
        "meta_rev_at_epoch": 340,
        "meta_bstar": -0.018710712,
        "meta_mean_motion_dot": -0.01913379,
        "meta_mean_motion_ddot": 0,
        "tle_line1": "1 66839U 25280U   25349.91668981 -.01913379  00000+0 -18711-1 0  9993",
        "tle_line2": "2 66839  69.9978 189.8048 0003859 273.3526 126.7848 15.68878354  3401"
      },
      "geometry": {
        "type": "Point",
        "coordinates": [
          -163.27005355563577,
          23.787267916412183
        ]
      }
    },
    {
      "type": "Feature",
      "properties": {
        "norad_id": 66840,
        "name": "STARLINK-35837",
        "group": "last-30-days",
        "lat": 27.313798360813482,
        "lon": -161.67057871597254,
        "alt_km": 371.1171012343093,
        "timestamp": "2025-12-16T17:51:09.662086+00:00",
        "meta_object_name": "STARLINK-35837",
        "meta_object_id": "2025-280V",
        "meta_epoch": "2025-12-15T22:00:01.999584",
        "meta_mean_motion": 15.68888811,
        "meta_eccentricity": 0.00037319,
        "meta_inclination": 69.9983,
        "meta_ra_of_asc_node": 189.8008,
        "meta_arg_of_pericenter": 273.2684,
        "meta_mean_anomaly": 130.7004,
        "meta_ephemeris_type": 0,
        "meta_classification_type": "U",
        "meta_norad_cat_id": 66840,
        "meta_element_set_no": 999,
        "meta_rev_at_epoch": 340,
        "meta_bstar": -0.018905956,
        "meta_mean_motion_dot": -0.019317,
        "meta_mean_motion_ddot": 0,
        "tle_line1": "1 66840U 25280V   25349.91668981 -.01931700  00000+0 -18906-1 0  9999",
        "tle_line2": "2 66840  69.9983 189.8008 0003731 273.2684 130.7004 15.68888811  3406"
      },
      "geometry": {
        "type": "Point",
        "coordinates": [
          -161.67057871597254,
          27.313798360813482
        ]
      }
    },
    {
      "type": "Feature",
      "properties": {
        "norad_id": 66841,
        "name": "STARLINK-35715",
        "group": "last-30-days",
        "lat": 29.07050343581451,
        "lon": -160.8326787727865,
        "alt_km": 370.78654348639884,
        "timestamp": "2025-12-16T17:51:09.662098+00:00",
        "meta_object_name": "STARLINK-35715",
        "meta_object_id": "2025-280W",
        "meta_epoch": "2025-12-15T22:00:01.999584",
        "meta_mean_motion": 15.68892043,
        "meta_eccentricity": 0.00038151,
        "meta_inclination": 69.9981,
        "meta_ra_of_asc_node": 189.7985,
        "meta_arg_of_pericenter": 277.2996,
        "meta_mean_anomaly": 128.5847,
        "meta_ephemeris_type": 0,
        "meta_classification_type": "U",
        "meta_norad_cat_id": 66841,
        "meta_element_set_no": 999,
        "meta_rev_at_epoch": 340,
        "meta_bstar": -0.018991439,
        "meta_mean_motion_dot": -0.01939753,
        "meta_mean_motion_ddot": 0,
        "tle_line1": "1 66841U 25280W   25349.91668981 -.01939753  00000+0 -18991-1 0  9990",
        "tle_line2": "2 66841  69.9981 189.7985 0003815 277.2996 128.5847 15.68892043  3403"
      },
      "geometry": {
        "type": "Point",
        "coordinates": [
          -160.8326787727865,
          29.07050343581451
        ]
      }
    }
  ]
}